NORAD_CAT_ID,OBJECT_NAME,OBJECT_TYPE,EPOCH,MEAN_MOTION,ECCENTRICITY,INCLINATION,RA_OF_ASC_NODE,ARG_OF_PERICENTER,MEAN_ANOMALY,BSTAR,MEAN_MOTION_DOT,MEAN_MOTION_DDOT,TLE_LINE0,TLE_LINE1,TLE_LINE2,SEMIMAJOR_AXIS,PERIOD,APOGEE,PERIGEE,DECAYED
53147.0,STARLINK-4094,PAYLOAD,2022-07-21 18:00:00,15.88985789,0.0036821999999999,53.2174,26.5936,52.4404,46.1167,-0.0041654,-0.01286755,0.00047006,0 STARLINK-4094,1 53147U 22083R   22202.75001157 -.01286755  47006-3 -41654-2 0  9997,2 53147  53.2174  26.5936 0036822  52.4404  46.1167 15.88985789  1302,6683.262,90.624,329.736,280.518,0.0
53147.0,STARLINK-4094,PAYLOAD,2022-07-22 06:00:00,15.87680124,0.0031069,53.2177,24.0625,51.6858,27.5728,-0.0046078,-0.01308839,0.00047903,0 STARLINK-4094,1 53147U 22083R   22203.25001157 -.01308839  47903-3 -46078-2 0  9992,2 53147  53.2177  24.0625 0031069  51.6858  27.5728 15.87680124  1372,6686.926,90.698,329.566,288.015,0.0
53147.0,STARLINK-4094,PAYLOAD,2022-07-22 12:00:00,15.87021517,0.0028364,53.2177,22.7986,51.0363,17.6842,-0.0047973,-0.01309333,0.00047648,0 STARLINK-4094,1 53147U 22083R   22203.50001157 -.01309333  47648-3 -47973-2 0  9991,2 53147  53.2177  22.7986 0028364  51.0363  17.6842 15.87021517  1413,6688.776,90.736,329.61300000000006,291.6690000000001,0.0
53147.0,STARLINK-4094,PAYLOAD,2022-07-22 20:00:01,15.86166039,0.002495,53.2175,21.1184,49.8682,123.8681,-0.0052334,-0.01358056,0.00050536,0 STARLINK-4094,1 53147U 22083R   22203.83334491 -.01358056  50536-3 -52334-2 0  9990,2 53147  53.2175  21.1184 0024950  49.8682 123.8681 15.86166039  1475,6691.18,90.785,329.74,296.351,0.0
53147.0,STARLINK-4094,PAYLOAD,2022-07-22 22:00:00,15.85959942,0.0023506,53.2175,20.6984,50.0656,239.7574,-0.0054188999999999,-0.01387635,0.00052464,0 STARLINK-4094,1 53147U 22083R   22203.91667824 -.01387635  52464-3 -54189-2 0  9995,2 53147  53.2175  20.6984 0023506  50.0656 239.7574 15.85959942  1300,6691.76,90.797,329.355,297.895,0.0
53147.0,STARLINK-4094,PAYLOAD,2022-07-23 06:00:00,15.85052904,0.0019466999999999,53.2175,19.0166,49.9561,343.5832,-0.0054595,-0.01175637,0.0,0 STARLINK-4094,1 53147U 22083R   22204.25001157 -.01175637  00000-0 -54595-2 0  9998,2 53147  53.2175  19.0166 0019467  49.9561 343.5832 15.85052904  1535,6694.313,90.849,329.21,303.146,0.0
53147.0,STARLINK-4094,PAYLOAD,2022-07-23 14:00:01,15.84176706,0.0016554,53.2177,17.339000000000002,48.8109,87.4423,-0.0057386,-0.01177004,0.0,0 STARLINK-4094,1 53147U 22083R   22204.58335648 -.01177004  00000-0 -57386-2 0  9990,2 53147  53.2177  17.3390 0016554  48.8109  87.4423 15.84176706  1308,6696.781,90.899,329.732,307.56,0.0
53147.0,STARLINK-4094,PAYLOAD,2022-07-23 22:00:00,15.83322268,0.0013117,53.2176,15.6654,48.2733,189.4975,-0.0062347999999999,-0.01238078,0.0,0 STARLINK-4094,1 53147U 22083R   22204.91667824 -.01238078  00000-0 -62348-2 0  9994,2 53147  53.2176  15.6654 0013117  48.2733 189.4975 15.83322268  1300,6699.19,90.948,329.842,312.268,0.0
53147.0,STARLINK-4094,PAYLOAD,2022-07-24 14:00:01,15.81536246,0.000724,53.2175,12.3195,32.7896,45.0096,-0.0065153,-0.01186363,0.0,0 STARLINK-4094,1 53147U 22083R   22205.58334491 -.01186363  00000-0 -65153-2 0  9995,2 53147  53.2175  12.3195 0007240  32.7896  45.0096 15.81536246  1741,6704.233,91.051,330.951,321.244,0.0
53147.0,STARLINK-4094,PAYLOAD,2022-07-24 22:00:00,15.80668394,0.0004892,53.2173,10.6521,21.9275,154.2915,-0.0069057,-0.0120297999999999,0.0,0 STARLINK-4094,1 53147U 22083R   22205.91667824 -.01202980  00000-0 -69057-2 0  9992,2 53147  53.2173  10.6521 0004892  21.9275 154.2915 15.80668394  1308,6706.686,91.101,331.832,325.27,0.0
53147.0,STARLINK-4094,PAYLOAD,2022-07-25 06:00:00,15.79798983,0.0003855,53.2175,8.9832,5.7755,267.8105,-0.0072967,-0.01218068,0.0,0 STARLINK-4094,1 53147U 22083R   22206.25001157 -.01218068  00000-0 -72967-2 0  9999,2 53147  53.2175   8.9832 0003855   5.7755 267.8105 15.79798983  1854,6709.147,91.151,333.598,328.425,0.0
53147.0,STARLINK-4094,PAYLOAD,2022-07-25 14:00:01,15.78917002,0.0003947,53.2178,7.3191,359.1557,10.7435,-0.0075583,-0.01212418,0.0,0 STARLINK-4094,1 53147U 22083R   22206.58334491 -.01212418  00000-0 -75583-2 0  9995,2 53147  53.2178   7.3191 0003947 359.1557  10.7435 15.78917002  1301,6711.645,91.202,336.159,330.861,0.0
53147.0,STARLINK-4094,PAYLOAD,2022-07-25 22:00:00,15.7803285,0.0003751999999999,53.2174,5.658,3.1710000000000003,101.9856,-0.0077981,-0.01202592,0.0,0 STARLINK-4094,1 53147U 22083R   22206.91667824 -.01202592  00000-0 -77981-2 0  9997,2 53147  53.2174   5.6580 0003752   3.1710 101.9856 15.78032850  1962,6714.151999999999,91.253,338.536,333.4980000000001,0.0
53147.0,STARLINK-4094,PAYLOAD,2022-07-26 14:00:01,15.76271898,0.0004498,53.2174,2.3384,337.7863,314.7168,-0.0083911,-0.01196855,0.0,0 STARLINK-4094,1 53147U 22083R   22207.58334491 -.01196855  00000-0 -83911-2 0  9996,2 53147  53.2174   2.3384 0004498 337.7863 314.7168 15.76271898  2068,6719.151,91.355,344.039,337.994,0.0
53147.0,STARLINK-4094,PAYLOAD,2022-07-26 20:00:01,15.75607086,0.0001365999999999,53.2174,1.0976,230.0322,41.6378,-0.0085751,-0.0118664,0.0,0 STARLINK-4094,1 53147U 22083R   22207.83334491 -.01186640  00000-0 -85751-2 0  9999,2 53147  53.2174   1.0976 0001366 230.0322  41.6378 15.75607086  2102,6721.041,91.393,343.824,341.98800000000006,0.0
53147.0,STARLINK-4094,PAYLOAD,2022-07-26 22:00:00,15.75399166,0.0001019,53.2171,0.6837,216.2823,168.3059,-0.0087932,-0.0120334,0.0,0 STARLINK-4094,1 53147U 22083R   22207.91667824 -.01203340  00000-0 -87932-2 0  9997,2 53147  53.2171   0.6837 0001019 216.2823 168.3059 15.75399166  1308,6721.6330000000025,91.405,344.182,342.8130000000001,0.0
53147.0,STARLINK-4094,PAYLOAD,2022-07-27 06:00:02,15.74492307,0.0001187,53.2174,359.0277,48.3606,67.3335,-0.0086778,-0.0114795,0.0,0 STARLINK-4094,1 53147U 22083R   22208.25002315 -.01147950  00000-0 -86778-2 0  9994,2 53147  53.2174 359.0277 0001187  48.3606  67.3335 15.74492307  2170,6724.2130000000025,91.458,346.876,345.28,0.0
53147.0,STARLINK-4094,PAYLOAD,2022-07-27 14:00:01,15.73526981,0.0001628,53.2177,357.37699999999984,47.3603,158.2498,-0.0032437,-0.00439052,0.0,0 STARLINK-4094,1 53147U 22083R   22208.58334491 -.00439052  00000-0 -32437-2 0  9992,2 53147  53.2177 357.3770 0001628  47.3603 158.2498 15.73526981  2229,6726.9630000000025,91.514,349.923,347.733,0.0
53147.0,STARLINK-4094,PAYLOAD,2022-07-27 22:00:00,15.73203707,0.000106,53.2172,355.728,80.383,214.3515,1.8928e-05,2.038e-05,0.0,0 STARLINK-4094,1 53147U 22083R   22208.91667824  .00002038  00000-0  18928-4 0  9997,2 53147  53.2172 355.7280 0001060  80.3830 214.3515 15.73203707  2278,6727.885,91.533,350.463,349.036,0.0
53147.0,STARLINK-4094,PAYLOAD,2022-07-28 06:00:00,15.73233633,0.0001041,53.2174,354.0758,62.0905,321.6212,0.00015687,0.00021483,0.0,0 STARLINK-4094,1 53147U 22083R   22209.25001157  .00021483  00000-0  15687-3 0  9999,2 53147  53.2174 354.0758 0001041  62.0905 321.6212 15.73233633  2324,6727.799,91.531,350.365,348.964,0.0
53147.0,STARLINK-4094,PAYLOAD,2022-07-28 14:00:01,15.73266084,0.0001186,53.2176,352.4275,58.9942,53.7033,-0.00096098,-0.00133739,0.0,0 STARLINK-4094,1 53147U 22083R   22209.58334491 -.00133739  00000-0 -96098-3 0  9990,2 53147  53.2176 352.4275 0001186  58.9942  53.7033 15.73266084  1304,6727.706999999999,91.529,350.37,348.774,0.0
53147.0,STARLINK-4094,PAYLOAD,2022-07-28 22:00:00,15.7316216,0.0001313,53.2171,350.7791,50.6698,150.9821,-0.0004195,-0.00058987,0.0,0 STARLINK-4094,1 53147U 22083R   22209.91667824 -.00058987  00000-0 -41950-3 0  9994,2 53147  53.2171 350.7791 0001313  50.6698 150.9821 15.73162160  1307,6728.003000000002,91.535,350.751,348.985,0.0
53147.0,STARLINK-4094,PAYLOAD,2022-07-29 14:00:01,15.73175946,0.0001267,53.2182,347.4795,52.0539,327.2815,0.00057791,0.00081189,0.0,0 STARLINK-4094,1 53147U 22083R   22210.58334491  .00081189  00000-0  57791-3 0  9998,2 53147  53.2182 347.4795 0001267  52.0539 327.2815 15.73175946  2538,6727.964,91.535,350.681,348.976,0.0
53147.0,STARLINK-4094,PAYLOAD,2022-07-29 22:00:00,15.73236596,0.0001250999999999,53.2178,345.8306,40.7351,67.5099,0.00011663,0.00015804,0.0,0 STARLINK-4094,1 53147U 22083R   22210.91667824  .00015804  00000-0  11663-3 0  9993,2 53147  53.2178 345.8306 0001251  40.7351  67.5099 15.73236596  2595,6727.791,91.531,350.497,348.814,0.0
53147.0,STARLINK-4094,PAYLOAD,2022-07-30 14:00:01,15.732174,0.0001044999999999,53.2179,342.5315,35.2964,250.8753,-9.8486e-06,-2.002e-05,0.0,0 STARLINK-4094,1 53147U 22083R   22211.58334491 -.00002002  00000-0 -98486-5 0  9996,2 53147  53.2179 342.5315 0001045  35.2964 250.8753 15.73217400  2698,6727.846,91.532,350.414,349.0080000000001,0.0
53147.0,STARLINK-4094,PAYLOAD,2022-07-30 22:00:00,15.73251193,0.0001215,53.2179,340.8824,29.4576,345.662,-0.00020181,-0.00028907,0.0,0 STARLINK-4094,1 53147U 22083R   22211.91667824 -.00028907  00000-0 -20181-3 0  9999,2 53147  53.2179 340.8824 0001215  29.4576 345.6620 15.73251193  1307,6727.749,91.53,350.432,348.797,0.0
53147.0,STARLINK-4094,PAYLOAD,2022-07-31 14:00:01,15.7319391,0.0001204,53.2176,337.5821,38.6958,154.3206,0.00012969,0.00017615,0.0,0 STARLINK-4094,1 53147U 22083R   22212.58334491  .00017615  00000-0  12969-3 0  9991,2 53147  53.2176 337.5821 0001204  38.6958 154.3206 15.73193910  1305,6727.913000000001,91.534,350.588,348.967,0.0
53147.0,STARLINK-4094,PAYLOAD,2022-07-31 20:00:01,15.73201372,0.0001495,53.2181,336.3467,37.0778,132.7234,0.00044535,0.00062351,0.0,0 STARLINK-4094,1 53147U 22083R   22212.83334491  .00062351  00000-0  44535-3 0  9990,2 53147  53.2181 336.3467 0001495  37.0778 132.7234 15.73201372  2897,6727.891,91.533,350.76199999999994,348.75,0.0
53147.0,STARLINK-4094,PAYLOAD,2022-07-31 22:00:00,15.73239211,0.0001471,53.218,335.9337,37.1522,244.8767,-4.9795e-05,-7.614e-05,0.0,0 STARLINK-4094,1 53147U 22083R   22212.91667824 -.00007614  00000-0 -49795-4 0  9995,2 53147  53.2180 335.9337 0001471  37.1522 244.8767 15.73239211  1303,6727.783,91.531,350.63800000000015,348.659,0.0
